{
  "type": "FeatureCollection",
  "features": [
    {
      "type": "Feature",
      "properties": {
        "norad_id": 66909,
        "name": "SILVERSAT",
        "group": "stations",
        "lat": -3.5652185854837195,
        "lon": 74.62749387432054,
        "alt_km": 406.36162575471917,
        "timestamp": "2025-12-25T19:00:38.111355+00:00",
        "meta_object_name": "SILVERSAT",
        "meta_object_id": "1998-067XV",
        "meta_epoch": "2025-12-24T12:08:54.950784",
        "meta_mean_motion": 15.53202951,
        "meta_eccentricity": 0.00038249,
        "meta_inclination": 51.631,
        "meta_ra_of_asc_node": 83.8633,
        "meta_arg_of_pericenter": 300.8028,
        "meta_mean_anomaly": 59.2585,
        "meta_ephemeris_type": 0,
        "meta_classification_type": "U",
        "meta_norad_cat_id": 66909,
        "meta_element_set_no": 999,
        "meta_rev_at_epoch": 344,
        "meta_bstar": 0.0011617624,
        "meta_mean_motion_dot": 0.00074602,
        "meta_mean_motion_ddot": 0,
        "tle_line1": "1 66909U 98067XV  25358.50619156  .00074602  00000+0  11618-2 0  9993",
        "tle_line2": "2 66909  51.6310  83.8633 0003824 300.8028  59.2585 15.53202951  3445"
      },
      "geometry": {
        "type": "Point",
        "coordinates": [
          74.62749387432054,
          -3.5652185854837195
        ]
      }
    },
    {
      "type": "Feature",
      "properties": {
        "norad_id": 66910,
        "name": "1998-067XW",
        "group": "stations",
        "lat": 3.55530018285774,
        "lon": 80.26131053139066,
        "alt_km": 407.08354094875176,
        "timestamp": "2025-12-25T19:00:38.111365+00:00",
        "meta_object_name": "1998-067XW",
        "meta_object_id": "1998-067XW",
        "meta_epoch": "2025-12-25T05:05:39.018624",
        "meta_mean_motion": 15.53228929,
        "meta_eccentricity": 0.00038368,
        "meta_inclination": 51.6308,
        "meta_ra_of_asc_node": 80.3284,
        "meta_arg_of_pericenter": 278.3824,
        "meta_mean_anomaly": 81.6731,
        "meta_ephemeris_type": 0,
        "meta_classification_type": "U",
        "meta_norad_cat_id": 66910,
        "meta_element_set_no": 999,
        "meta_rev_at_epoch": 355,
        "meta_bstar": 0.0010169127,
        "meta_mean_motion_dot": 0.00065225,
        "meta_mean_motion_ddot": 0,
        "tle_line1": "1 66910U 98067XW  25359.21225716  .00065225  00000+0  10169-2 0  9990",
        "tle_line2": "2 66910  51.6308  80.3284 0003836 278.3824  81.6731 15.53228929  3551"
      },
      "geometry": {
        "type": "Point",
        "coordinates": [
          80.26131053139066,
          3.55530018285774
        ]
      }
    },
    {
      "type": "Feature",
      "properties": {
        "norad_id": 66911,
        "name": "1998-067XX",
        "group": "stations",
        "lat": 21.005469687030274,
        "lon": 95.10348125996981,
        "alt_km": 403.6295612809554,
        "timestamp": "2025-12-25T19:00:38.111374+00:00",
        "meta_object_name": "1998-067XX",
        "meta_object_id": "1998-067XX",
        "meta_epoch": "2025-12-24T22:49:37.455744",
        "meta_mean_motion": 15.53703475,
        "meta_eccentricity": 0.00035293,
        "meta_inclination": 51.6305,
        "meta_ra_of_asc_node": 81.585,
        "meta_arg_of_pericenter": 283.5602,
        "meta_mean_anomaly": 76.4995,
        "meta_ephemeris_type": 0,
        "meta_classification_type": "U",
        "meta_norad_cat_id": 66911,
        "meta_element_set_no": 999,
        "meta_rev_at_epoch": 350,
        "meta_bstar": 0.0011925494,
        "meta_mean_motion_dot": 0.00078033,
        "meta_mean_motion_ddot": 0,
        "tle_line1": "1 66911U 98067XX  25358.95112796  .00078033  00000+0  11925-2 0  9996",
        "tle_line2": "2 66911  51.6305  81.5850 0003529 283.5602  76.4995 15.53703475  3505"
      },
      "geometry": {
        "type": "Point",
        "coordinates": [
          95.10348125996981,
          21.005469687030274
        ]
      }
    },
    {
      "type": "Feature",
      "properties": {
        "norad_id": 66912,
        "name": "1998-067XY",
        "group": "stations",
        "lat": -35.9063956728786,
        "lon": 42.54758419343566,
        "alt_km": 411.16726181661215,
        "timestamp": "2025-12-25T19:00:38.111385+00:00",
        "meta_object_name": "1998-067XY",
        "meta_object_id": "1998-067XY",
        "meta_epoch": "2025-12-25T05:18:48.744000",
        "meta_mean_motion": 15.52348997,
        "meta_eccentricity": 0.00038732,
        "meta_inclination": 51.632,
        "meta_ra_of_asc_node": 80.3904,
        "meta_arg_of_pericenter": 295.0134,
        "meta_mean_anomaly": 65.0453,
        "meta_ephemeris_type": 0,
        "meta_classification_type": "U",
        "meta_norad_cat_id": 66912,
        "meta_element_set_no": 999,
        "meta_rev_at_epoch": 354,
        "meta_bstar": 0.00084033216,
        "meta_mean_motion_dot": 0.00052036,
        "meta_mean_motion_ddot": 0,
        "tle_line1": "1 66912U 98067XY  25359.22139750  .00052036  00000+0  84033-3 0  9993",
        "tle_line2": "2 66912  51.6320  80.3904 0003873 295.0134  65.0453 15.52348997  3540"
      },
      "geometry": {
        "type": "Point",
        "coordinates": [
          42.54758419343566,
          -35.9063956728786
        ]
      }
    }
  ]
}